{
  "type": "Feature",
  "properties": {
    "id": "P62",
    "name": "P62",
    "display_name": "P62",
    "area_da": 10,
    "area_m2": 10000,
    "village": "Bahçeli",
    "district": "Merkez",
    "current_crop": "FASULYE (TAZE)",
    "irrigation_key": "drip",
    "irrigation_label": "Damla",
    "farmer": "Ayşe Eren",
    "parcel_type": "vegetable",
    "is_orchard": false,
    "source_label": "bahceli_sulu_fasulye_taze_10 da_P62.geojson",
    "owner_username": "C062",
    "approval_status": "approved",
    "approval_note": "Yönetici çizim modunda parsel bilgisine geometri bağlandı.",
    "reviewed_by": "",
    "reviewed_at": "",
    "submitted_at": "2026-04-24T14:37:50.309Z",
    "water_mode": "sulu",
    "is_user_parcel": false,
    "area_official_da": 10,
    "area_drawn_da": 0,
    "irrigation_current": "Damla",
    "farmer_id": "C062",
    "farmer_name": "Ayşe Eren",
    "assigned_alternative_id": "current",
    "assigned_alternative_label": "Mevcut desen / Excel referansı",
    "assigned_pattern": "FASULYE (TAZE)",
    "assignment_status": "geometry_ready",
    "geometry_status": "Yüklü gerçek GeoJSON",
    "geometry_source": "uploaded_real_geojson",
    "water_m3_current": 5804,
    "profit_tl_current": 5756.35,
    "equal_parcel_quota_m3": "649677.940710",
    "assigned_water_m3": 5804,
    "assigned_profit_tl": 5756.35,
    "assignment_note": "Parsel bilgileri Excel kaynağından girildi; kullanıcı yalnızca sınır çizimini/polygonu tamamlayacak.",
    "assigned_at": "2026-04-24T14:37:51.997Z",
    "data_source": "2024 Excel kaynakları + panel çizimi",
    "area_official_m2": 10000,
    "secondary_crop_current": "",
    "parcel_type_label": "Sebze",
    "selected_alternative_id": "current",
    "selected_alternative_label": "Mevcut desen / Excel referansı",
    "selected_pattern": "FASULYE (TAZE)",
    "assignment_status_label": "GeoJSON yüklü, seçilebilir",
    "source_file": "geojson_yeni_klasor4/bahceli_sulu_fasulye_taze_10 da_P62.geojson",
    "has_real_geojson": true,
    "drawing_required": false
  },
  "geometry": {
    "type": "Polygon",
    "coordinates": [
      [
        [
          34.607977816332244,
          37.81897313137192
        ],
        [
          34.61171105037526,
          37.82316116566593
        ],
        [
          34.61520827536959,
          37.81809140966157
        ],
        [
          34.614521703591556,
          37.81556487951266
        ],
        [
          34.607977816332244,
          37.81897313137192
        ]
      ]
    ]
  }
}