{
  "type": "Feature",
  "properties": {
    "id": "P72",
    "name": "P72",
    "display_name": "P72",
    "area_da": 41,
    "area_m2": 41000,
    "village": "Bahçeli",
    "district": "Merkez",
    "current_crop": "ERİK",
    "irrigation_key": "drip",
    "irrigation_label": "Damla",
    "farmer": "Recep Ergin",
    "parcel_type": "orchard",
    "is_orchard": true,
    "source_label": "bahceli_sulu_erik_41 da_P72.geojson",
    "owner_username": "C072",
    "approval_status": "approved",
    "approval_note": "Yönetici çizim modunda parsel bilgisine geometri bağlandı.",
    "reviewed_by": "",
    "reviewed_at": "",
    "submitted_at": "2026-04-24T14:22:43.782Z",
    "water_mode": "sulu",
    "is_user_parcel": false,
    "area_official_da": 41,
    "area_drawn_da": 0,
    "irrigation_current": "Damla",
    "farmer_id": "C072",
    "farmer_name": "Recep Ergin",
    "assigned_alternative_id": "current",
    "assigned_alternative_label": "Mevcut desen / Excel referansı",
    "assigned_pattern": "ERİK",
    "assignment_status": "geometry_ready",
    "geometry_status": "Yüklü gerçek GeoJSON",
    "geometry_source": "uploaded_real_geojson",
    "water_m3_current": 32102.59,
    "profit_tl_current": 369000,
    "equal_parcel_quota_m3": "649677.940710",
    "assigned_water_m3": 32102.59,
    "assigned_profit_tl": 369000,
    "assignment_note": "Parsel bilgileri Excel kaynağından girildi; kullanıcı yalnızca sınır çizimini/polygonu tamamlayacak.",
    "assigned_at": "2026-04-24T14:22:45.978Z",
    "data_source": "2024 Excel kaynakları + panel çizimi",
    "area_official_m2": 41000,
    "secondary_crop_current": "",
    "parcel_type_label": "Bahçe / çok yıllık",
    "selected_alternative_id": "current",
    "selected_alternative_label": "Mevcut desen / Excel referansı",
    "selected_pattern": "ERİK",
    "assignment_status_label": "GeoJSON yüklü, seçilebilir",
    "source_file": "geojson_yeni_klasor4/bahceli_sulu_erik_41 da_P72.geojson",
    "has_real_geojson": true,
    "drawing_required": false
  },
  "geometry": {
    "type": "Polygon",
    "coordinates": [
      [
        [
          34.568638031810075,
          37.83994393560908
        ],
        [
          34.57730600050764,
          37.84604613931825
        ],
        [
          34.57280037321434,
          37.84902925514719
        ],
        [
          34.567136156045635,
          37.847537712318015
        ],
        [
          34.56662122721211,
          37.84743601511733
        ],
        [
          34.568638031810075,
          37.83994393560908
        ]
      ]
    ]
  }
}