{
  "type": "Feature",
  "properties": {
    "id": "P66",
    "name": "P66",
    "display_name": "P66",
    "area_da": 457,
    "area_m2": 457000,
    "village": "Bahçeli",
    "district": "Merkez",
    "current_crop": "LAHANA (BEYAZ)",
    "irrigation_key": "sprinkler",
    "irrigation_label": "Yagmurlama",
    "farmer": "Elif Doğan",
    "parcel_type": "vegetable",
    "is_orchard": false,
    "source_label": "bahceli_sulu_lahana_beyaz_457 da_P66.geojson",
    "owner_username": "C066",
    "approval_status": "approved",
    "approval_note": "Yönetici çizim modunda parsel bilgisine geometri bağlandı.",
    "reviewed_by": "",
    "reviewed_at": "",
    "submitted_at": "2026-04-24T14:01:23.915Z",
    "water_mode": "sulu",
    "is_user_parcel": false,
    "area_official_da": 457,
    "area_drawn_da": 0,
    "irrigation_current": "Yagmurlama",
    "farmer_id": "C066",
    "farmer_name": "Elif Doğan",
    "assigned_alternative_id": "current",
    "assigned_alternative_label": "Mevcut desen / Excel referansı",
    "assigned_pattern": "LAHANA (BEYAZ)",
    "assignment_status": "geometry_ready",
    "geometry_status": "Yüklü gerçek GeoJSON",
    "geometry_source": "uploaded_real_geojson",
    "water_m3_current": 189421.93,
    "profit_tl_current": 2272545.836,
    "equal_parcel_quota_m3": "649677.940710",
    "assigned_water_m3": 189421.93,
    "assigned_profit_tl": 2272545.836,
    "assignment_note": "Parsel bilgileri Excel kaynağından girildi; kullanıcı yalnızca sınır çizimini/polygonu tamamlayacak.",
    "assigned_at": "2026-04-24T14:01:28.779Z",
    "data_source": "2024 Excel kaynakları + panel çizimi",
    "area_official_m2": 457000,
    "secondary_crop_current": "",
    "parcel_type_label": "Sebze",
    "selected_alternative_id": "current",
    "selected_alternative_label": "Mevcut desen / Excel referansı",
    "selected_pattern": "LAHANA (BEYAZ)",
    "assignment_status_label": "GeoJSON yüklü, seçilebilir",
    "source_file": "geojson_yeni_klasor4/bahceli_sulu_lahana_beyaz_457 da_P66.geojson",
    "has_real_geojson": true,
    "drawing_required": false
  },
  "geometry": {
    "type": "Polygon",
    "coordinates": [
      [
        [
          34.61882536625036,
          37.79813485966219
        ],
        [
          34.62534779814158,
          37.810820501795476
        ],
        [
          34.63187023003282,
          37.80987085003795
        ],
        [
          34.63307173064438,
          37.79128234992752
        ],
        [
          34.63281426622763,
          37.79006104383949
        ],
        [
          34.61882536625036,
          37.79813485966219
        ]
      ]
    ]
  }
}