{
  "type": "Feature",
  "properties": {
    "id": "P50",
    "name": "P50",
    "display_name": "P50",
    "area_da": 170,
    "area_m2": 170000,
    "village": "Bahçeli",
    "district": "Merkez",
    "current_crop": "ÇAVDAR (Dane)",
    "irrigation_key": "rainfed",
    "irrigation_label": "Yagmurlama",
    "farmer": "Neslihan Özkan",
    "parcel_type": "field",
    "is_orchard": false,
    "source_label": "bahceli_kuru_cavdar_dane_170 da_P50.geojson",
    "owner_username": "C050",
    "approval_status": "approved",
    "approval_note": "Yönetici çizim modunda parsel bilgisine geometri bağlandı.",
    "reviewed_by": "",
    "reviewed_at": "",
    "submitted_at": "2026-04-24T14:10:17.790Z",
    "water_mode": "kuru",
    "is_user_parcel": false,
    "area_official_da": 170,
    "area_drawn_da": 0,
    "irrigation_current": "Yagmurlama",
    "farmer_id": "C050",
    "farmer_name": "Neslihan Özkan",
    "assigned_alternative_id": "current",
    "assigned_alternative_label": "Mevcut desen / Excel referansı",
    "assigned_pattern": "ÇAVDAR (Dane)",
    "assignment_status": "geometry_ready",
    "geometry_status": "Yüklü gerçek GeoJSON",
    "geometry_source": "uploaded_real_geojson",
    "water_m3_current": 87369.8,
    "profit_tl_current": 425000,
    "equal_parcel_quota_m3": "649677.940710",
    "assigned_water_m3": 87369.8,
    "assigned_profit_tl": 425000,
    "assignment_note": "Parsel bilgileri Excel kaynağından girildi; kullanıcı yalnızca sınır çizimini/polygonu tamamlayacak.",
    "assigned_at": "2026-04-24T14:10:26.722Z",
    "data_source": "2024 Excel kaynakları + panel çizimi",
    "area_official_m2": 170000,
    "secondary_crop_current": "",
    "parcel_type_label": "Tarla",
    "selected_alternative_id": "current",
    "selected_alternative_label": "Mevcut desen / Excel referansı",
    "selected_pattern": "ÇAVDAR (Dane)",
    "assignment_status_label": "GeoJSON yüklü, seçilebilir",
    "source_file": "geojson_yeni_klasor4/bahceli_kuru_cavdar_dane_170 da_P50.geojson",
    "has_real_geojson": true,
    "drawing_required": false
  },
  "geometry": {
    "type": "Polygon",
    "coordinates": [
      [
        [
          34.64242659368778,
          37.82805897396637
        ],
        [
          34.62603469248743,
          37.834840261588475
        ],
        [
          34.614019686372,
          37.82500719119852
        ],
        [
          34.63221383848966,
          37.811510016584435
        ],
        [
          34.64242659368778,
          37.82805897396637
        ]
      ]
    ]
  }
}