{
  "type": "Feature",
  "properties": {
    "id": "P78",
    "name": "P78",
    "display_name": "P78",
    "area_da": 203,
    "area_m2": 203000,
    "village": "Bahçeli",
    "district": "Merkez",
    "current_crop": "CEVİZ",
    "irrigation_key": "drip",
    "irrigation_label": "Damla",
    "farmer": "Şaban Bilgin",
    "parcel_type": "orchard",
    "is_orchard": true,
    "source_label": "bahceli_sulu_ceviz_203 da_P78.geojson",
    "owner_username": "C078",
    "approval_status": "approved",
    "approval_note": "Yönetici çizim modunda parsel bilgisine geometri bağlandı.",
    "reviewed_by": "",
    "reviewed_at": "",
    "submitted_at": "2026-04-24T14:07:22.171Z",
    "water_mode": "sulu",
    "is_user_parcel": false,
    "area_official_da": 203,
    "area_drawn_da": 0,
    "irrigation_current": "Damla",
    "farmer_id": "C078",
    "farmer_name": "Şaban Bilgin",
    "assigned_alternative_id": "current",
    "assigned_alternative_label": "Mevcut desen / Excel referansı",
    "assigned_pattern": "CEVİZ",
    "assignment_status": "geometry_ready",
    "geometry_status": "Yüklü gerçek GeoJSON",
    "geometry_source": "uploaded_real_geojson",
    "water_m3_current": 165032.91,
    "profit_tl_current": 2030000,
    "equal_parcel_quota_m3": "649677.940710",
    "assigned_water_m3": 165032.91,
    "assigned_profit_tl": 2030000,
    "assignment_note": "Parsel bilgileri Excel kaynağından girildi; kullanıcı yalnızca sınır çizimini/polygonu tamamlayacak.",
    "assigned_at": "2026-04-24T14:07:28.373Z",
    "data_source": "2024 Excel kaynakları + panel çizimi",
    "area_official_m2": 203000,
    "secondary_crop_current": "",
    "parcel_type_label": "Bahçe / çok yıllık",
    "selected_alternative_id": "current",
    "selected_alternative_label": "Mevcut desen / Excel referansı",
    "selected_pattern": "CEVİZ",
    "assignment_status_label": "GeoJSON yüklü, seçilebilir",
    "source_file": "geojson_yeni_klasor4/bahceli_sulu_ceviz_203 da_P78.geojson",
    "has_real_geojson": true,
    "drawing_required": false
  },
  "geometry": {
    "type": "Polygon",
    "coordinates": [
      [
        [
          34.58455950471155,
          37.838346050029834
        ],
        [
          34.57378890994377,
          37.84248213283646
        ],
        [
          34.56885417528923,
          37.83970216830936
        ],
        [
          34.57074224767878,
          37.82803873633842
        ],
        [
          34.58455950471155,
          37.838346050029834
        ]
      ]
    ]
  }
}