{
  "type": "Feature",
  "properties": {
    "id": "P73",
    "name": "P73",
    "display_name": "P73",
    "area_da": 480,
    "area_m2": 480000,
    "village": "Bahçeli",
    "district": "Merkez",
    "current_crop": "KAYSI",
    "irrigation_key": "drip",
    "irrigation_label": "Damla",
    "farmer": "Bekir Arslan",
    "parcel_type": "orchard",
    "is_orchard": true,
    "source_label": "bahceli_sulu_kaysi_480 da_P73.geojson",
    "owner_username": "C073",
    "approval_status": "approved",
    "approval_note": "Yönetici çizim modunda parsel bilgisine geometri bağlandı.",
    "reviewed_by": "",
    "reviewed_at": "",
    "submitted_at": "2026-04-24T14:00:01.768Z",
    "water_mode": "sulu",
    "is_user_parcel": false,
    "area_official_da": 480,
    "area_drawn_da": 0,
    "irrigation_current": "Damla",
    "farmer_id": "C073",
    "farmer_name": "Bekir Arslan",
    "assigned_alternative_id": "current",
    "assigned_alternative_label": "Mevcut desen / Excel referansı",
    "assigned_pattern": "KAYSI",
    "assignment_status": "geometry_ready",
    "geometry_status": "Yüklü gerçek GeoJSON",
    "geometry_source": "uploaded_real_geojson",
    "water_m3_current": 384264,
    "profit_tl_current": 4560000,
    "equal_parcel_quota_m3": "649677.940710",
    "assigned_water_m3": 384264,
    "assigned_profit_tl": 4560000,
    "assignment_note": "Parsel bilgileri Excel kaynağından girildi; kullanıcı yalnızca sınır çizimini/polygonu tamamlayacak.",
    "assigned_at": "2026-04-24T14:00:14.210Z",
    "data_source": "2024 Excel kaynakları + panel çizimi",
    "area_official_m2": 480000,
    "secondary_crop_current": "",
    "parcel_type_label": "Bahçe / çok yıllık",
    "selected_alternative_id": "current",
    "selected_alternative_label": "Mevcut desen / Excel referansı",
    "selected_pattern": "KAYSI",
    "assignment_status_label": "GeoJSON yüklü, seçilebilir",
    "source_file": "geojson_yeni_klasor4/bahceli_sulu_kaysi_480 da_P73.geojson",
    "has_real_geojson": true,
    "drawing_required": false
  },
  "geometry": {
    "type": "Polygon",
    "coordinates": [
      [
        [
          34.594687963722414,
          37.84808995474123
        ],
        [
          34.583531172329465,
          37.83703812124153
        ],
        [
          34.591298015568384,
          37.83263048649839
        ],
        [
          34.60048091309948,
          37.83697031347078
        ],
        [
          34.594687963722414,
          37.84808995474123
        ]
      ]
    ]
  }
}