{
  "type": "Feature",
  "properties": {
    "id": "P64",
    "name": "P64",
    "display_name": "P64",
    "area_da": 10,
    "area_m2": 10000,
    "village": "Bahçeli",
    "district": "Merkez",
    "current_crop": "KARPUZ",
    "irrigation_key": "drip",
    "irrigation_label": "Damla",
    "farmer": "Hatice Turan",
    "parcel_type": "vegetable",
    "is_orchard": false,
    "source_label": "bahceli_sulu_karpuz_10 da_P64.geojson",
    "owner_username": "C064",
    "approval_status": "approved",
    "approval_note": "Yönetici çizim modunda parsel bilgisine geometri bağlandı.",
    "reviewed_by": "",
    "reviewed_at": "",
    "submitted_at": "2026-04-24T14:38:53.838Z",
    "water_mode": "sulu",
    "is_user_parcel": false,
    "area_official_da": 10,
    "area_drawn_da": 0,
    "irrigation_current": "Damla",
    "farmer_id": "C064",
    "farmer_name": "Hatice Turan",
    "assigned_alternative_id": "current",
    "assigned_alternative_label": "Mevcut desen / Excel referansı",
    "assigned_pattern": "KARPUZ",
    "assignment_status": "geometry_ready",
    "geometry_status": "Yüklü gerçek GeoJSON",
    "geometry_source": "uploaded_real_geojson",
    "water_m3_current": 6431.8,
    "profit_tl_current": 45000,
    "equal_parcel_quota_m3": "649677.940710",
    "assigned_water_m3": 6431.8,
    "assigned_profit_tl": 45000,
    "assignment_note": "Parsel bilgileri Excel kaynağından girildi; kullanıcı yalnızca sınır çizimini/polygonu tamamlayacak.",
    "assigned_at": "2026-04-24T14:38:55.987Z",
    "data_source": "2024 Excel kaynakları + panel çizimi",
    "area_official_m2": 10000,
    "secondary_crop_current": "",
    "parcel_type_label": "Sebze",
    "selected_alternative_id": "current",
    "selected_alternative_label": "Mevcut desen / Excel referansı",
    "selected_pattern": "KARPUZ",
    "assignment_status_label": "GeoJSON yüklü, seçilebilir",
    "source_file": "geojson_yeni_klasor4/bahceli_sulu_karpuz_10 da_P64.geojson",
    "has_real_geojson": true,
    "drawing_required": false
  },
  "geometry": {
    "type": "Polygon",
    "coordinates": [
      [
        [
          34.61175306022555,
          37.82316014929159
        ],
        [
          34.6136411326151,
          37.82507605339165
        ],
        [
          34.61557211574082,
          37.823753576232406
        ],
        [
          34.61670925024818,
          37.81778517939808
        ],
        [
          34.61535756206016,
          37.81788691747807
        ],
        [
          34.61175306022555,
          37.82316014929159
        ]
      ]
    ]
  }
}