{
  "type": "Feature",
  "properties": {
    "id": "P58",
    "name": "P58",
    "display_name": "P58",
    "area_da": 2,
    "area_m2": 2000,
    "village": "Bahçeli",
    "district": "Merkez",
    "current_crop": "SİVRİ BİBER",
    "irrigation_key": "drip",
    "irrigation_label": "Damla",
    "farmer": "Murat Demir",
    "parcel_type": "vegetable",
    "is_orchard": false,
    "source_label": "bahceli_sulu_sivri_biber_2 da_P58.geojson",
    "owner_username": "C058",
    "approval_status": "approved",
    "approval_note": "Yönetici çizim modunda parsel bilgisine geometri bağlandı.",
    "reviewed_by": "",
    "reviewed_at": "",
    "submitted_at": "2026-04-24T14:40:15.478Z",
    "water_mode": "sulu",
    "is_user_parcel": false,
    "area_official_da": 2,
    "area_drawn_da": 0,
    "irrigation_current": "Damla",
    "farmer_id": "C058",
    "farmer_name": "Murat Demir",
    "assigned_alternative_id": "current",
    "assigned_alternative_label": "Mevcut desen / Excel referansı",
    "assigned_pattern": "SİVRİ BİBER",
    "assignment_status": "geometry_ready",
    "geometry_status": "Yüklü gerçek GeoJSON",
    "geometry_source": "uploaded_real_geojson",
    "water_m3_current": 1396.26,
    "profit_tl_current": 14000,
    "equal_parcel_quota_m3": "649677.940710",
    "assigned_water_m3": 1396.26,
    "assigned_profit_tl": 14000,
    "assignment_note": "Parsel bilgileri Excel kaynağından girildi; kullanıcı yalnızca sınır çizimini/polygonu tamamlayacak.",
    "assigned_at": "2026-04-24T14:40:18.878Z",
    "data_source": "2024 Excel kaynakları + panel çizimi",
    "area_official_m2": 2000,
    "secondary_crop_current": "",
    "parcel_type_label": "Sebze",
    "selected_alternative_id": "current",
    "selected_alternative_label": "Mevcut desen / Excel referansı",
    "selected_pattern": "SİVRİ BİBER",
    "assignment_status_label": "GeoJSON yüklü, seçilebilir",
    "source_file": "geojson_yeni_klasor4/bahceli_sulu_sivri_biber_2 da_P58.geojson",
    "has_real_geojson": true,
    "drawing_required": false
  },
  "geometry": {
    "type": "Polygon",
    "coordinates": [
      [
        [
          34.61608095539123,
          37.82158697125835
        ],
        [
          34.61762574189179,
          37.822273665207256
        ],
        [
          34.615619664977885,
          37.82374876393865
        ],
        [
          34.61608095539123,
          37.82158697125835
        ]
      ]
    ]
  }
}