{
  "type": "Feature",
  "properties": {
    "id": "P89",
    "name": "P89",
    "display_name": "P89",
    "area_da": 45.8,
    "area_m2": 45800,
    "village": "Bor İlçe Merkezi",
    "district": "Bor",
    "current_crop": "TRİTİKALE (YEŞİLOT)",
    "irrigation_key": "sprinkler",
    "irrigation_label": "Yağmurlama",
    "farmer": "Metin Yalçın",
    "parcel_type": "field",
    "is_orchard": false,
    "source_label": "bor_ilce_merkezi_sulu_tritikale_yesilot_40 da_P89.geojson",
    "owner_username": "C089",
    "approval_status": "approved",
    "approval_note": "Yönetici çizim modunda parsel bilgisine geometri bağlandı.",
    "reviewed_by": "",
    "reviewed_at": "",
    "submitted_at": "2026-04-25T12:55:05.697Z",
    "water_mode": "sulu",
    "is_user_parcel": true,
    "area_official_da": 40,
    "area_drawn_da": "",
    "irrigation_current": "",
    "farmer_id": "C089",
    "farmer_name": "Metin Yalçın",
    "assigned_alternative_id": "current",
    "assigned_alternative_label": "Mevcut desen",
    "assigned_pattern": "TRİTİKALE (YEŞİLOT)",
    "assignment_status": "approved",
    "geometry_status": "Yüklü gerçek GeoJSON",
    "geometry_source": "uploaded_real_geojson",
    "water_m3_current": 24294.8,
    "profit_tl_current": 140000,
    "equal_parcel_quota_m3": "468372.468884",
    "assigned_water_m3": 24294.8,
    "assigned_profit_tl": 140000,
    "assignment_note": "Parsel bilgileri Excel kaynağından girildi; kullanıcı yalnızca sınır çizimini/polygonu tamamlayacak.",
    "assigned_at": "2026-04-25T12:55:08.767Z",
    "data_source": "parcel_drawing_registry_2024",
    "source_file": "geojson_yeni_klasor4/bor_ilce_merkezi_sulu_tritikale_yesilot_40 da_P89.geojson",
    "has_real_geojson": true,
    "drawing_required": false,
    "assignment_status_label": "GeoJSON yüklü, seçilebilir"
  },
  "geometry": {
    "type": "Polygon",
    "coordinates": [
      [
        [
          34.574225605900885,
          37.85822895259814
        ],
        [
          34.57464392671867,
          37.859838886516805
        ],
        [
          34.57614559119288,
          37.859711787749056
        ],
        [
          34.57753999391889,
          37.859711787749056
        ],
        [
          34.57559855627728,
          37.85739007835861
        ],
        [
          34.574225605900885,
          37.85822895259814
        ]
      ]
    ]
  }
}