{
  "type": "Feature",
  "properties": {
    "id": "P95",
    "name": "P95",
    "display_name": "P95",
    "area_da": 26.8,
    "area_m2": 26800,
    "village": "Bor İlçe Merkezi",
    "district": "Bor",
    "current_crop": "SALÇALIK BİBER",
    "irrigation_key": "drip",
    "irrigation_label": "Damla",
    "farmer": "Derya Öztürk",
    "parcel_type": "vegetable",
    "is_orchard": false,
    "source_label": "bor_ilce_merkezi_sulu_salcalik_biber_191 da_P95.geojson",
    "owner_username": "C095",
    "approval_status": "approved",
    "approval_note": "Yönetici çizim modunda parsel bilgisine geometri bağlandı.",
    "reviewed_by": "",
    "reviewed_at": "",
    "submitted_at": "2026-04-25T13:04:57.516Z",
    "water_mode": "sulu",
    "is_user_parcel": true,
    "area_official_da": 191,
    "area_drawn_da": "",
    "irrigation_current": "",
    "farmer_id": "C095",
    "farmer_name": "Derya Öztürk",
    "assigned_alternative_id": "current",
    "assigned_alternative_label": "Mevcut desen",
    "assigned_pattern": "SALÇALIK BİBER",
    "assignment_status": "approved",
    "geometry_status": "Yüklü gerçek GeoJSON",
    "geometry_source": "uploaded_real_geojson",
    "water_m3_current": 133335.19,
    "profit_tl_current": 1748777.091,
    "equal_parcel_quota_m3": "468372.468884",
    "assigned_water_m3": 133335.19,
    "assigned_profit_tl": 1748777.091,
    "assignment_note": "Parsel bilgileri Excel kaynağından girildi; kullanıcı yalnızca sınır çizimini/polygonu tamamlayacak.",
    "assigned_at": "2026-04-25T13:04:59.244Z",
    "data_source": "parcel_drawing_registry_2024",
    "source_file": "geojson_yeni_klasor4/bor_ilce_merkezi_sulu_salcalik_biber_191 da_P95.geojson",
    "has_real_geojson": true,
    "drawing_required": false,
    "assignment_status_label": "GeoJSON yüklü, seçilebilir"
  },
  "geometry": {
    "type": "Polygon",
    "coordinates": [
      [
        [
          34.58417978657666,
          37.91908773110205
        ],
        [
          34.58306962748325,
          37.91838501421139
        ],
        [
          34.58416369731446,
          37.91691182689084
        ],
        [
          34.58558491547753,
          37.91777542303674
        ],
        [
          34.58417978657666,
          37.91908773110205
        ]
      ]
    ]
  }
}