{
  "type": "Feature",
  "properties": {
    "id": "P115",
    "name": "P115",
    "display_name": "P115",
    "area_da": 362.9,
    "area_m2": 362900,
    "village": "Bor İlçe Merkezi",
    "district": "Bor",
    "current_crop": "ERİK",
    "irrigation_key": "drip",
    "irrigation_label": "Damla",
    "farmer": "Zeynep Demir",
    "parcel_type": "orchard",
    "is_orchard": true,
    "source_label": "bor_ilce_merkezi_sulu_erik_13 da_P115.geojson",
    "owner_username": "C115",
    "approval_status": "approved",
    "approval_note": "Yönetici çizim modunda parsel bilgisine geometri bağlandı.",
    "reviewed_by": "",
    "reviewed_at": "",
    "submitted_at": "2026-04-25T13:33:47.706Z",
    "water_mode": "sulu",
    "is_user_parcel": true,
    "area_official_da": 13,
    "area_drawn_da": "",
    "irrigation_current": "",
    "farmer_id": "C115",
    "farmer_name": "Zeynep Demir",
    "assigned_alternative_id": "current",
    "assigned_alternative_label": "Mevcut desen",
    "assigned_pattern": "ERİK",
    "assignment_status": "approved",
    "geometry_status": "Yüklü gerçek GeoJSON",
    "geometry_source": "uploaded_real_geojson",
    "water_m3_current": 10179.26,
    "profit_tl_current": 117000,
    "equal_parcel_quota_m3": "468372.468884",
    "assigned_water_m3": 10179.26,
    "assigned_profit_tl": 117000,
    "assignment_note": "Parsel bilgileri Excel kaynağından girildi; kullanıcı yalnızca sınır çizimini/polygonu tamamlayacak.",
    "assigned_at": "2026-04-25T13:33:49.623Z",
    "data_source": "parcel_drawing_registry_2024",
    "source_file": "geojson_yeni_klasor4/bor_ilce_merkezi_sulu_erik_13 da_P115.geojson",
    "has_real_geojson": true,
    "drawing_required": false,
    "assignment_status_label": "GeoJSON yüklü, seçilebilir"
  },
  "geometry": {
    "type": "Polygon",
    "coordinates": [
      [
        [
          34.57728874971164,
          37.874335834115406
        ],
        [
          34.58700666409457,
          37.871489329238265
        ],
        [
          34.58194390958163,
          37.86533846993632
        ],
        [
          34.57728874971164,
          37.874335834115406
        ]
      ]
    ]
  }
}