{
  "type": "Feature",
  "properties": {
    "id": "P84",
    "name": "P84",
    "display_name": "P84",
    "area_da": 128.3,
    "area_m2": 128300,
    "village": "Bor İlçe Merkezi",
    "district": "Bor",
    "current_crop": "KURU FASULYE",
    "irrigation_key": "sprinkler",
    "irrigation_label": "Yağmurlama",
    "farmer": "Selim Çetin",
    "parcel_type": "field",
    "is_orchard": false,
    "source_label": "bor_ilce_merkezi_sulu_kuru_fasulye_160 da_P84.geojson",
    "owner_username": "C084",
    "approval_status": "approved",
    "approval_note": "Yönetici çizim modunda parsel bilgisine geometri bağlandı.",
    "reviewed_by": "",
    "reviewed_at": "",
    "submitted_at": "2026-04-25T12:46:25.875Z",
    "water_mode": "sulu",
    "is_user_parcel": true,
    "area_official_da": 160,
    "area_drawn_da": "",
    "irrigation_current": "",
    "farmer_id": "C084",
    "farmer_name": "Selim Çetin",
    "assigned_alternative_id": "current",
    "assigned_alternative_label": "Mevcut desen",
    "assigned_pattern": "KURU FASULYE",
    "assignment_status": "approved",
    "geometry_status": "Yüklü gerçek GeoJSON",
    "geometry_source": "uploaded_real_geojson",
    "water_m3_current": 133510.4,
    "profit_tl_current": 880000,
    "equal_parcel_quota_m3": "468372.468884",
    "assigned_water_m3": 133510.4,
    "assigned_profit_tl": 880000,
    "assignment_note": "Parsel bilgileri Excel kaynağından girildi; kullanıcı yalnızca sınır çizimini/polygonu tamamlayacak.",
    "assigned_at": "2026-04-25T12:46:27.777Z",
    "data_source": "parcel_drawing_registry_2024",
    "source_file": "geojson_yeni_klasor4/bor_ilce_merkezi_sulu_kuru_fasulye_160 da_P84.geojson",
    "has_real_geojson": true,
    "drawing_required": false,
    "assignment_status_label": "GeoJSON yüklü, seçilebilir"
  },
  "geometry": {
    "type": "Polygon",
    "coordinates": [
      [
        [
          34.57411762827808,
          37.858270063601516
        ],
        [
          34.574632484669245,
          37.85958343265532
        ],
        [
          34.57414980680253,
          37.861066240557285
        ],
        [
          34.57333461751654,
          37.86217620866303
        ],
        [
          34.57265886850319,
          37.862998082672014
        ],
        [
          34.572058202713485,
          37.86334546996129
        ],
        [
          34.569280123436265,
          37.86136279855792
        ],
        [
          34.57411762827808,
          37.858270063601516
        ]
      ]
    ]
  }
}