{
  "type": "Feature",
  "properties": {
    "id": "P112",
    "name": "P112",
    "display_name": "P112",
    "area_da": 603.1,
    "area_m2": 603100,
    "village": "Bor İlçe Merkezi",
    "district": "Bor",
    "current_crop": "BAĞ",
    "irrigation_key": "drip",
    "irrigation_label": "Damla",
    "farmer": "Ayşe Kılıç",
    "parcel_type": "orchard",
    "is_orchard": true,
    "source_label": "bor_ilce_merkezi_sulu_bag_700 da_P112.geojson",
    "owner_username": "C112",
    "approval_status": "approved",
    "approval_note": "Yönetici çizim modunda parsel bilgisine geometri bağlandı.",
    "reviewed_by": "",
    "reviewed_at": "",
    "submitted_at": "2026-04-25T13:28:37.215Z",
    "water_mode": "sulu",
    "is_user_parcel": true,
    "area_official_da": 700,
    "area_drawn_da": "",
    "irrigation_current": "",
    "farmer_id": "C112",
    "farmer_name": "Ayşe Kılıç",
    "assigned_alternative_id": "current",
    "assigned_alternative_label": "Mevcut desen",
    "assigned_pattern": "BAĞ",
    "assignment_status": "approved",
    "geometry_status": "Yüklü gerçek GeoJSON",
    "geometry_source": "uploaded_real_geojson",
    "water_m3_current": 449764,
    "profit_tl_current": 5600000,
    "equal_parcel_quota_m3": "468372.468884",
    "assigned_water_m3": 449764,
    "assigned_profit_tl": 5600000,
    "assignment_note": "Parsel bilgileri Excel kaynağından girildi; kullanıcı yalnızca sınır çizimini/polygonu tamamlayacak.",
    "assigned_at": "2026-04-25T13:28:38.932Z",
    "data_source": "parcel_drawing_registry_2024",
    "source_file": "geojson_yeni_klasor4/bor_ilce_merkezi_sulu_bag_700 da_P112.geojson",
    "has_real_geojson": true,
    "drawing_required": false,
    "assignment_status_label": "GeoJSON yüklü, seçilebilir"
  },
  "geometry": {
    "type": "Polygon",
    "coordinates": [
      [
        [
          34.57374747801872,
          37.88360866666976
        ],
        [
          34.56748339192641,
          37.88116911921729
        ],
        [
          34.56898505640058,
          37.8792885795694
        ],
        [
          34.57155933835634,
          37.878644780189035
        ],
        [
          34.574691381402495,
          37.878068744394575
        ],
        [
          34.575592380086995,
          37.87752658894344
        ],
        [
          34.57458411965434,
          37.87600175534301
        ],
        [
          34.57450257205238,
          37.875657009268735
        ],
        [
          34.575805802292464,
          37.87543251616134
        ],
        [
          34.57639574190735,
          37.876571917498616
        ],
        [
          34.57820793273818,
          37.87612263650463
        ],
        [
          34.582455497965164,
          37.880951160028594
        ],
        [
          34.57374747801872,
          37.88360866666976
        ]
      ]
    ]
  }
}