{
  "type": "Feature",
  "properties": {
    "id": "P114",
    "name": "P114",
    "display_name": "P114",
    "area_da": 3520.3,
    "area_m2": 3520300,
    "village": "Bor İlçe Merkezi",
    "district": "Bor",
    "current_crop": "ELMA",
    "irrigation_key": "drip",
    "irrigation_label": "Damla",
    "farmer": "Hatice Özkan",
    "parcel_type": "orchard",
    "is_orchard": true,
    "source_label": "bor_ilce_merkezi_sulu_elma_4940 da_P114.geojson",
    "owner_username": "C114",
    "approval_status": "approved",
    "approval_note": "Yönetici çizim modunda parsel bilgisine geometri bağlandı.",
    "reviewed_by": "",
    "reviewed_at": "",
    "submitted_at": "2026-04-25T13:32:28.622Z",
    "water_mode": "sulu",
    "is_user_parcel": true,
    "area_official_da": 4940,
    "area_drawn_da": "",
    "irrigation_current": "",
    "farmer_id": "C114",
    "farmer_name": "Hatice Özkan",
    "assigned_alternative_id": "current",
    "assigned_alternative_label": "Mevcut desen",
    "assigned_pattern": "ELMA",
    "assignment_status": "approved",
    "geometry_status": "Yüklü gerçek GeoJSON",
    "geometry_source": "uploaded_real_geojson",
    "water_m3_current": 4016269.4,
    "profit_tl_current": 54340000,
    "equal_parcel_quota_m3": "468372.468884",
    "assigned_water_m3": 4016269.4,
    "assigned_profit_tl": 54340000,
    "assignment_note": "Parsel bilgileri Excel kaynağından girildi; kullanıcı yalnızca sınır çizimini/polygonu tamamlayacak.",
    "assigned_at": "2026-04-25T13:32:32.592Z",
    "data_source": "parcel_drawing_registry_2024",
    "source_file": "geojson_yeni_klasor4/bor_ilce_merkezi_sulu_elma_4940 da_P114.geojson",
    "has_real_geojson": true,
    "drawing_required": false,
    "assignment_status_label": "GeoJSON yüklü, seçilebilir"
  },
  "geometry": {
    "type": "Polygon",
    "coordinates": [
      [
        [
          34.56885090080154,
          37.90746610345074
        ],
        [
          34.56974117331122,
          37.90804190926791
        ],
        [
          34.57414963116043,
          37.90908342893143
        ],
        [
          34.57418180968487,
          37.90829593981356
        ],
        [
          34.57502917749532,
          37.907974167640944
        ],
        [
          34.57540459361387,
          37.90784715192229
        ],
        [
          34.57540459361387,
          37.90712739204163
        ],
        [
          34.575983807053916,
          37.90685642179172
        ],
        [
          34.5764021278717,
          37.906390689343226
        ],
        [
          34.57611252115169,
          37.90611124845918
        ],
        [
          34.57633777082281,
          37.90565397926894
        ],
        [
          34.576734639290976,
          37.90537453558718
        ],
        [
          34.576541568144314,
          37.904824113110294
        ],
        [
          34.57611252115169,
          37.904307559040944
        ],
        [
          34.57615542585093,
          37.90398576942706
        ],
        [
          34.576477211095415,
          37.90397730126032
        ],
        [
          34.57734603125547,
          37.904485389539666
        ],
        [
          34.57759273327625,
          37.90451079386154
        ],
        [
          34.57773217354885,
          37.90435836779872
        ],
        [
          34.578718981631866,
          37.904409176521405
        ],
        [
          34.58030645550458,
          37.90559470342513
        ],
        [
          34.581239632713526,
          37.90636528567036
        ],
        [
          34.58274129718773,
          37.90689029312753
        ],
        [
          34.583846093193735,
          37.9042313458385
        ],
        [
          34.583856819368556,
          37.90395189675424
        ],
        [
          34.58618439930351,
          37.902901836164475
        ],
        [
          34.5823873334188,
          37.90142833878289
        ],
        [
          34.58166867970618,
          37.89970075255811
        ],
        [
          34.58186175085285,
          37.89858288103907
        ],
        [
          34.571286359893264,
          37.89021673098128
        ],
        [
          34.5653976899195,
          37.883779439248514
        ],
        [
          34.55456425335576,
          37.88208532157528
        ],
        [
          34.55482168155135,
          37.887057446281595
        ],
        [
          34.55507910974692,
          37.892884654035306
        ],
        [
          34.55524000236914,
          37.896882122845994
        ],
        [
          34.555486704389914,
          37.899566741696695
        ],
        [
          34.557406689681905,
          37.901065681861176
        ],
        [
          34.55888690180645,
          37.899439711466016
        ],
        [
          34.562297825397835,
          37.895933590568454
        ],
        [
          34.56594472483511,
          37.894553115504564
        ],
        [
          34.568089959798215,
          37.89567951734721
        ],
        [
          34.56942000547537,
          37.89589971418964
        ],
        [
          34.567103151715216,
          37.900049454573725
        ],
        [
          34.570394091450616,
          37.90070777355833
        ],
        [
          34.572775302259664,
          37.901613902128844
        ],
        [
          34.57383719356639,
          37.901994980905336
        ],
        [
          34.56885090080154,
          37.90746610345074
        ]
      ]
    ]
  }
}