{
  "type": "Feature",
  "properties": {
    "id": "P102",
    "name": "P102",
    "display_name": "P102",
    "area_da": 180.3,
    "area_m2": 180300,
    "village": "Bor İlçe Merkezi",
    "district": "Bor",
    "current_crop": "ISPANAK",
    "irrigation_key": "sprinkler",
    "irrigation_label": "Yağmurlama",
    "farmer": "Mehmet Öztürk",
    "parcel_type": "vegetable",
    "is_orchard": false,
    "source_label": "bor_ilce_merkezi_sulu_ispanak_30 da_P102.geojson",
    "owner_username": "C102",
    "approval_status": "approved",
    "approval_note": "Yönetici çizim modunda parsel bilgisine geometri bağlandı.",
    "reviewed_by": "",
    "reviewed_at": "",
    "submitted_at": "2026-04-25T13:14:00.490Z",
    "water_mode": "sulu",
    "is_user_parcel": true,
    "area_official_da": 30,
    "area_drawn_da": "",
    "irrigation_current": "",
    "farmer_id": "C102",
    "farmer_name": "Mehmet Öztürk",
    "assigned_alternative_id": "current",
    "assigned_alternative_label": "Mevcut desen",
    "assigned_pattern": "ISPANAK",
    "assignment_status": "approved",
    "geometry_status": "Yüklü gerçek GeoJSON",
    "geometry_source": "uploaded_real_geojson",
    "water_m3_current": 11081.7,
    "profit_tl_current": 90000,
    "equal_parcel_quota_m3": "468372.468884",
    "assigned_water_m3": 11081.7,
    "assigned_profit_tl": 90000,
    "assignment_note": "Parsel bilgileri Excel kaynağından girildi; kullanıcı yalnızca sınır çizimini/polygonu tamamlayacak.",
    "assigned_at": "2026-04-25T13:14:02.047Z",
    "data_source": "parcel_drawing_registry_2024",
    "source_file": "geojson_yeni_klasor4/bor_ilce_merkezi_sulu_ispanak_30 da_P102.geojson",
    "has_real_geojson": true,
    "drawing_required": false,
    "assignment_status_label": "GeoJSON yüklü, seçilebilir"
  },
  "geometry": {
    "type": "Polygon",
    "coordinates": [
      [
        [
          34.57526607679293,
          37.9092527435543
        ],
        [
          34.572927770683116,
          37.90892250796842
        ],
        [
          34.5709863330415,
          37.9083890473524
        ],
        [
          34.56979572763696,
          37.90813501712819
        ],
        [
          34.56854076518356,
          37.90748300220499
        ],
        [
          34.56738233830346,
          37.908854767152185
        ],
        [
          34.57359279352167,
          37.91255501789017
        ],
        [
          34.57475122040177,
          37.911013974979184
        ],
        [
          34.57524462444328,
          37.910285778637004
        ],
        [
          34.57526607679293,
          37.9092527435543
        ]
      ]
    ]
  }
}