{
  "type": "Feature",
  "properties": {
    "id": "P164",
    "name": "P164",
    "display_name": "P164",
    "area_da": 392.8,
    "area_m2": 392800,
    "village": "Kaynarca",
    "district": "Bor",
    "current_crop": "KARPUZ",
    "irrigation_key": "drip",
    "irrigation_label": "Damla",
    "farmer": "Erdal Arslan",
    "parcel_type": "vegetable",
    "is_orchard": false,
    "source_label": "kaynarca_sulu_karpuz_70 da_P164.geojson",
    "owner_username": "C164",
    "approval_status": "approved",
    "approval_note": "Yönetici çizim modunda parsel bilgisine geometri bağlandı.",
    "reviewed_by": "",
    "reviewed_at": "",
    "submitted_at": "2026-04-25T08:13:00.770Z",
    "water_mode": "sulu",
    "is_user_parcel": true,
    "area_official_da": 70,
    "area_drawn_da": "",
    "irrigation_current": "",
    "farmer_id": "C164",
    "farmer_name": "Erdal Arslan",
    "assigned_alternative_id": "current",
    "assigned_alternative_label": "Mevcut desen / Excel referansı",
    "assigned_pattern": "KARPUZ",
    "assignment_status": "geometry_ready",
    "geometry_status": "Yüklü gerçek GeoJSON",
    "geometry_source": "uploaded_real_geojson",
    "water_m3_current": 45022.6,
    "profit_tl_current": 315000,
    "equal_parcel_quota_m3": "875652.876609",
    "assigned_water_m3": 45022.6,
    "assigned_profit_tl": 315000,
    "assignment_note": "Parsel bilgileri Excel kaynağından girildi; kullanıcı yalnızca sınır çizimini/polygonu tamamlayacak.",
    "assigned_at": "2026-04-25T08:13:02.994Z",
    "data_source": "parcel_drawing_registry_2024",
    "source_file": "geojson_yeni_klasor4/kaynarca_sulu_karpuz_70 da_P164.geojson",
    "has_real_geojson": true,
    "drawing_required": false,
    "assignment_status_label": "GeoJSON yüklü, seçilebilir"
  },
  "geometry": {
    "type": "Polygon",
    "coordinates": [
      [
        [
          34.64621375396589,
          37.83454090241881
        ],
        [
          34.64500869837789,
          37.83223042031809
        ],
        [
          34.636427758525414,
          37.83145058585537
        ],
        [
          34.638487184089975,
          37.836400699493716
        ],
        [
          34.63998884856419,
          37.83853660484995
        ],
        [
          34.64621375396589,
          37.83454090241881
        ]
      ]
    ]
  }
}