{
  "type": "Feature",
  "properties": {
    "id": "P175",
    "name": "P175",
    "display_name": "P175",
    "area_da": 1020.7,
    "area_m2": 1020700,
    "village": "Kaynarca",
    "district": "Bor",
    "current_crop": "ELMA",
    "irrigation_key": "drip",
    "irrigation_label": "Damla",
    "farmer": "Seda Çetin",
    "parcel_type": "orchard",
    "is_orchard": true,
    "source_label": "kaynarca_sulu_elma_130 da_P175.geojson",
    "owner_username": "C175",
    "approval_status": "approved",
    "approval_note": "Yönetici çizim modunda parsel bilgisine geometri bağlandı.",
    "reviewed_by": "",
    "reviewed_at": "",
    "submitted_at": "2026-04-25T08:10:19.272Z",
    "water_mode": "sulu",
    "is_user_parcel": true,
    "area_official_da": 130,
    "area_drawn_da": "",
    "irrigation_current": "",
    "farmer_id": "C175",
    "farmer_name": "Seda Çetin",
    "assigned_alternative_id": "current",
    "assigned_alternative_label": "Mevcut desen",
    "assigned_pattern": "ELMA",
    "assignment_status": "approved",
    "geometry_status": "Yüklü gerçek GeoJSON",
    "geometry_source": "uploaded_real_geojson",
    "water_m3_current": 105691.3,
    "profit_tl_current": 1430000,
    "equal_parcel_quota_m3": "875652.876609",
    "assigned_water_m3": 105691.3,
    "assigned_profit_tl": 1430000,
    "assignment_note": "Parsel bilgileri Excel kaynağından girildi; kullanıcı yalnızca sınır çizimini/polygonu tamamlayacak.",
    "assigned_at": "2026-04-25T08:10:21.791Z",
    "data_source": "parcel_drawing_registry_2024",
    "source_file": "geojson_yeni_klasor4/kaynarca_sulu_elma_130 da_P175.geojson",
    "has_real_geojson": true,
    "drawing_required": false,
    "assignment_status_label": "GeoJSON yüklü, seçilebilir"
  },
  "geometry": {
    "type": "Polygon",
    "coordinates": [
      [
        [
          34.59691922322393,
          37.858283534404066
        ],
        [
          34.59966512397675,
          37.8672987047476
        ],
        [
          34.598892839390025,
          37.86885760732279
        ],
        [
          34.595117225854935,
          37.86885760732279
        ],
        [
          34.58790923637884,
          37.87211086298037
        ],
        [
          34.584476860437846,
          37.86770537816426
        ],
        [
          34.59691922322393,
          37.858283534404066
        ]
      ]
    ]
  }
}