{
  "type": "Feature",
  "properties": {
    "id": "P171",
    "name": "P171",
    "display_name": "P171",
    "area_da": 734.6,
    "area_m2": 734600,
    "village": "Kaynarca",
    "district": "Bor",
    "current_crop": "ARMUT",
    "irrigation_key": "drip",
    "irrigation_label": "Damla",
    "farmer": "Gül Çelik",
    "parcel_type": "orchard",
    "is_orchard": true,
    "source_label": "kaynarca_sulu_armut_11 da_P171.geojson",
    "owner_username": "C171",
    "approval_status": "approved",
    "approval_note": "Yönetici çizim modunda parsel bilgisine geometri bağlandı.",
    "reviewed_by": "",
    "reviewed_at": "",
    "submitted_at": "2026-04-25T08:26:18.182Z",
    "water_mode": "sulu",
    "is_user_parcel": true,
    "area_official_da": 11,
    "area_drawn_da": "",
    "irrigation_current": "",
    "farmer_id": "C171",
    "farmer_name": "Gül Çelik",
    "assigned_alternative_id": "current",
    "assigned_alternative_label": "Mevcut desen / Excel referansı",
    "assigned_pattern": "ARMUT",
    "assignment_status": "geometry_ready",
    "geometry_status": "Yüklü gerçek GeoJSON",
    "geometry_source": "uploaded_real_geojson",
    "water_m3_current": 9327.89,
    "profit_tl_current": 110000,
    "equal_parcel_quota_m3": "875652.876609",
    "assigned_water_m3": 9327.89,
    "assigned_profit_tl": 110000,
    "assignment_note": "Parsel bilgileri Excel kaynağından girildi; kullanıcı yalnızca sınır çizimini/polygonu tamamlayacak.",
    "assigned_at": "2026-04-25T08:26:20.254Z",
    "data_source": "parcel_drawing_registry_2024",
    "source_file": "geojson_yeni_klasor4/kaynarca_sulu_armut_11 da_P171.geojson",
    "has_real_geojson": true,
    "drawing_required": false,
    "assignment_status_label": "GeoJSON yüklü, seçilebilir"
  },
  "geometry": {
    "type": "Polygon",
    "coordinates": [
      [
        [
          34.59711319424242,
          37.85832109491283
        ],
        [
          34.61474702563926,
          37.86432003097359
        ],
        [
          34.60007361849152,
          37.86784460182304
        ],
        [
          34.59711319424242,
          37.85832109491283
        ]
      ]
    ]
  }
}