{
  "type": "FeatureCollection",
  "features": [
    {
      "type": "Feature",
      "geometry": {
        "type": "LineString",
        "coordinates": [
          [
            34.62696714595196,
            37.89748573002451
          ],
          [
            34.62838023374716,
            37.89851782415357
          ],
          [
            34.63161201857014,
            37.89888937415709
          ],
          [
            34.63295968543443,
            37.898992582571935
          ],
          [
            34.63409800585886,
            37.89892033648415
          ],
          [
            34.63472604607684,
            37.89892033648415
          ],
          [
            34.63426809956049,
            37.899498300011885
          ],
          [
            34.63251482436204,
            37.90066453345
          ],
          [
            34.631507344901,
            37.90083998258699
          ],
          [
            34.62783984826212,
            37.90282814152985
          ],
          [
            34.62664919235074,
            37.90215732115611
          ],
          [
            34.62596246782942,
            37.901987900947915
          ],
          [
            34.62561232019949,
            37.902583880192
          ],
          [
            34.62467244814752,
            37.902671096146264
          ],
          [
            34.623843149464236,
            37.90297635142177
          ],
          [
            34.623142852938955,
            37.90329614112649
          ],
          [
            34.62241491354603,
            37.903833966699494
          ],
          [
            34.62196340599302,
            37.90384123468013
          ],
          [
            34.62253470036031,
            37.90194429245413
          ],
          [
            34.62255312978234,
            37.9015881562443
          ],
          [
            34.62275584646495,
            37.90136284473161
          ],
          [
            34.62150712317324,
            37.90104271394762
          ],
          [
            34.6206959056065,
            37.90076405915353
          ],
          [
            34.62005478308902,
            37.9006918153361
          ],
          [
            34.6193089864532,
            37.90059893019722
          ],
          [
            34.61940057512757,
            37.900020975489554
          ],
          [
            34.620852915661,
            37.89953590337254
          ],
          [
            34.62229217164888,
            37.89909211035925
          ],
          [
            34.623338902949726,
            37.89878248616225
          ],
          [
            34.62375759582943,
            37.898648315378665
          ],
          [
            34.6239407740766,
            37.89856574813042
          ],
          [
            34.6260604057694,
            37.89760590212228
          ],
          [
            34.62705480158331,
            37.897471728839605
          ]
        ]
      },
      "properties": {
        "source_file": "geojson_yeni_klasor4/sazlica_sulu_elma_3826 da_P38.geojson",
        "source_label": "sazlica_sulu_elma_3826 da_P38.geojson",
        "geometry_status": "Yüklü gerçek GeoJSON",
        "geometry_source": "uploaded_real_geojson",
        "has_real_geojson": true,
        "drawing_required": false,
        "assignment_status_label": "GeoJSON yüklü, seçilebilir",
        "assignment_status": "geometry_ready",
        "village": "Sazlıca",
        "id": "P38",
        "name": "P38",
        "parcel_id": "P38",
        "district": "Merkez",
        "current_crop": "ELMA",
        "crop": "ELMA",
        "assigned_pattern": "ELMA",
        "assigned_alternative_label": "Mevcut desen / Excel referansı",
        "water_mode": "sulu",
        "irrigation_key": "irrigated",
        "irrigation_current": "Sulama",
        "is_orchard": true,
        "parcel_type": "orchard",
        "area_da": 3826,
        "area_official_da": 3826,
        "farmer_id": "C038",
        "farmer_name": "Cemal Öztürk"
      },
      "id": 1773611730225
    }
  ]
}