{
  "type": "FeatureCollection",
  "features": [
    {
      "type": "Feature",
      "properties": {
        "kind": "village_boundary",
        "village": "Bahçeli",
        "name": "Bahçeli",
        "title": "Bahçeli sınırı"
      },
      "geometry": {
        "type": "Polygon",
        "coordinates": [
          [
            [
              34.57660474450615,
              37.85748490390985
            ],
            [
              34.56528490944339,
              37.85246960196713
            ],
            [
              34.57108287158603,
              37.826733577550584
            ],
            [
              34.60393799460713,
              37.81517124973688
            ],
            [
              34.585715827873145,
              37.795751203348615
            ],
            [
              34.62271233978614,
              37.76977708356557
            ],
            [
              34.633203907181354,
              37.7850570777305
            ],
            [
              34.632651703459224,
              37.80949851049712
            ],
            [
              34.635136544377495,
              37.82193434531092
            ],
            [
              34.643419347438396,
              37.82804240581275
            ],
            [
              34.575224273116476,
              37.85639465229079
            ],
            [
              34.57660474450615,
              37.85748490390985
            ]
          ]
        ]
      }
    }
  ]
}