{
  "type": "FeatureCollection",
  "features": [
    {
      "type": "Feature",
      "properties": {
        "kind": "reservoir_area_boundary",
        "name": "Baraj alanı",
        "title": "Baraj alanı"
      },
      "geometry": {
        "type": "Polygon",
        "coordinates": [
          [
            [
              34.52928906307098,
              37.815935427795225
            ],
            [
              34.57154048229081,
              37.77567538953039
            ],
            [
              34.58613887758454,
              37.795572855463476
            ],
            [
              34.62331987248577,
              37.769090489959794
            ],
            [
              34.63393753324186,
              37.78425504552638
            ],
            [
              34.63496505082196,
              37.820799656258245
            ],
            [
              34.65722795262892,
              37.85083389949577
            ],
            [
              34.67654841447457,
              37.88985381360372
            ],
            [
              34.641814319810194,
              37.92819171906996
            ],
            [
              34.6121141672711,
              37.914090459813835
            ],
            [
              34.603304780073614,
              37.914884968025135
            ],
            [
              34.595753889929185,
              37.91667258183017
            ],
            [
              34.59147505986184,
              37.924815606834116
            ],
            [
              34.56101979526481,
              37.90415837292642
            ],
            [
              34.55523078716858,
              37.897999804707666
            ],
            [
              34.55397231315901,
              37.88488630104089
            ],
            [
              34.55674096519747,
              37.872167948773054
            ],
            [
              34.52880267166309,
              37.8155048634776
            ],
            [
              34.52928906307098,
              37.815935427795225
            ]
          ]
        ]
      }
    }
  ]
}