{
  "type": "FeatureCollection",
  "features": [
    {
      "type": "Feature",
      "properties": {
        "kind": "village_boundary",
        "village": "Bor İlçe Merkezi",
        "name": "Bor İlçe Merkezi",
        "title": "Bor İlçe Merkezi sınırı"
      },
      "geometry": {
        "type": "Polygon",
        "coordinates": [
          [
            [
              34.6033858161621,
              37.91480949462279
            ],
            [
              34.597035650297336,
              37.91698825515283
            ],
            [
              34.592065968460794,
              37.92395985865751
            ],
            [
              34.56500882022088,
              37.90740122162617
            ],
            [
              34.55534554577031,
              37.89955635655217
            ],
            [
              34.55451726546422,
              37.88190235269681
            ],
            [
              34.56528490944339,
              37.85268767217835
            ],
            [
              34.57525825469117,
              37.85691208514666
            ],
            [
              34.592929381296585,
              37.87860561530577
            ],
            [
              34.603851738109014,
              37.87334355032161
            ],
            [
              34.60340700763793,
              37.91485957964301
            ],
            [
              34.6033858161621,
              37.91480949462279
            ]
          ]
        ]
      }
    }
  ]
}