{
  "type": "FeatureCollection",
  "features": [
    {
      "type": "Feature",
      "properties": {
        "kind": "village_boundary",
        "village": "Kaynarca",
        "name": "Kaynarca",
        "title": "Kaynarca sınırı"
      },
      "geometry": {
        "type": "Polygon",
        "coordinates": [
          [
            [
              34.66093099352299,
              37.860791997768786
            ],
            [
              34.643076507924576,
              37.8288993513103
            ],
            [
              34.585658059359005,
              37.85229932080338
            ],
            [
              34.57531056621037,
              37.85694637957984
            ],
            [
              34.592962172169806,
              37.87857537187915
            ],
            [
              34.60371544317171,
              37.87344907128849
            ],
            [
              34.66174256780485,
              37.861272685934935
            ],
            [
              34.66093099352299,
              37.860791997768786
            ]
          ]
        ]
      }
    }
  ]
}