{
  "type": "FeatureCollection",
  "features": [
    {
      "type": "Feature",
      "properties": {
        "kind": "village_boundary",
        "village": "Kemerhisar",
        "name": "Kemerhisar",
        "title": "Kemerhisar sınırı"
      },
      "geometry": {
        "type": "Polygon",
        "coordinates": [
          [
            [
              34.586820210040294,
              37.79618765846362
            ],
            [
              34.569978502057424,
              37.776980904453595
            ],
            [
              34.52911666519793,
              37.815607600081805
            ],
            [
              34.55562163499282,
              37.87252875242811
            ],
            [
              34.55921085807825,
              37.86707844078411
            ],
            [
              34.56528490944339,
              37.850725076951036
            ],
            [
              34.57163506266961,
              37.82586101580765
            ],
            [
              34.60393799460713,
              37.81473490680011
            ],
            [
              34.586820210040294,
              37.79771526102864
            ],
            [
              34.586820210040294,
              37.79618765846362
            ]
          ]
        ]
      }
    }
  ]
}